{"type": "FeatureCollection", "features": [{"type": "Feature", "properties": {"name": "dim-mask"}, "geometry": {"type": "Polygon", "coordinates": [[[-101.0, 27.0], [-101.0, 32.0], [-90.0, 32.0], [-90.0, 27.0], [-101.0, 27.0]], [[-95.42413, 29.58024], [-95.41712, 29.58328], [-95.39301, 29.58164], [-95.37595, 29.58838], [-95.36823, 29.58472], [-95.34628, 29.58559], [-95.33195, 29.59906], [-95.30865, 29.59492], [-95.28803, 29.59834], [-95.26192, 29.59335], [-95.25967, 29.57443], [-95.25237, 29.56057], [-95.25386, 29.55378], [-95.24278, 29.55512], [-95.23799, 29.56143], [-95.23368, 29.55715], [-95.22858, 29.56002], [-95.22117, 29.55693], [-95.21789, 29.5594], [-95.21457, 29.55707], [-95.21573, 29.5547], [-95.21314, 29.55892], [-95.2042, 29.55815], [-95.20106, 29.56322], [-95.19924, 29.55875], [-95.19399, 29.5601], [-95.19451, 29.55592], [-95.19754, 29.55741], [-95.19997, 29.55411], [-95.19725, 29.54919], [-95.19947, 29.54464], [-95.19265, 29.54132], [-95.19424, 29.5367], [-95.18744, 29.53401], [-95.19062, 29.53058], [-95.18746, 29.52816], [-95.18975, 29.52711], [-95.18694, 29.52741], [-95.18784, 29.52421], [-95.18282, 29.51882], [-95.17956, 29.51994], [-95.17342, 29.51449], [-95.16967, 29.5149], [-95.16739, 29.5119], [-95.17094, 29.50755], [-95.16326, 29.50188], [-95.16393, 29.49806], [-95.15216, 29.50045], [-95.14963, 29.49849], [-95.14171, 29.50637], [-95.13021, 29.50495], [-95.1251, 29.51027], [-95.11874, 29.50698], [-95.11319, 29.51084], [-95.10433, 29.51074], [-95.10619, 29.51659], [-95.10321, 29.52086], [-95.09805, 29.51834], [-95.0937, 29.52535], [-95.09646, 29.53496], [-95.09004, 29.53113], [-95.08593, 29.53485], [-95.08011, 29.53368], [-95.07885, 29.54462], [-95.06751, 29.55761], [-95.05013, 29.55855], [-95.02878, 29.55227], [-95.02895, 29.54754], [-95.01762, 29.54819], [-95.02088, 29.55302], [-95.0108, 29.57012], [-94.98269, 29.60103], [-94.98925, 29.6103], [-94.9986, 29.61652], [-94.99818, 29.62047], [-95.00017, 29.61775], [-94.99856, 29.62074], [-95.00292, 29.61924], [-95.01515, 29.63219], [-95.01605, 29.63851], [-95.00553, 29.65952], [-95.00003, 29.66557], [-94.96971, 29.6828], [-94.93027, 29.6737], [-94.92808, 29.68035], [-94.92044, 29.68581], [-94.92162, 29.69324], [-94.91583, 29.69858], [-94.92992, 29.69738], [-94.92511, 29.70315], [-94.93297, 29.70521], [-94.93257, 29.71435], [-94.94253, 29.71334], [-94.94554, 29.7171], [-94.92903, 29.73706], [-94.92966, 29.75052], [-94.91884, 29.75548], [-94.91902, 29.76539], [-94.91344, 29.76671], [-94.92001, 29.772], [-94.9163, 29.77291], [-94.92008, 29.77536], [-94.92138, 29.78208], [-94.91702, 29.78677], [-94.92144, 29.7923], [-94.91926, 29.7944], [-94.92417, 29.79593], [-94.92274, 29.80273], [-94.91689, 29.8033], [-94.91245, 29.80879], [-94.91325, 29.81292], [-94.90906, 29.81376], [-94.91114, 29.81817], [-94.90867, 29.82608], [-94.93515, 29.83462], [-94.95236, 29.85482], [-94.96672, 29.8584], [-94.97705, 29.86807], [-94.97634, 29.87699], [-94.98615, 29.89079], [-94.98433, 29.89375], [-94.98792, 29.90474], [-94.99875, 29.91993], [-94.99273, 29.92629], [-94.99615, 29.93009], [-94.99512, 29.93624], [-94.9877, 29.95284], [-94.98083, 29.95614], [-94.98216, 29.96497], [-94.98592, 29.97302], [-94.99552, 29.97791], [-94.99985, 29.99149], [-95.02191, 29.99691], [-95.03119, 29.99333], [-95.09671, 30.16722], [-95.26414, 30.03207], [-95.29292, 30.02775], [-95.29994, 30.0322], [-95.30514, 30.02963], [-95.311, 30.03289], [-95.31278, 30.03682], [-95.30925, 30.04459], [-95.31392, 30.0516], [-95.31658, 30.0542], [-95.32183, 30.05315], [-95.32879, 30.06222], [-95.33712, 30.06315], [-95.34968, 30.07648], [-95.37102, 30.07834], [-95.37433, 30.08591], [-95.37924, 30.08748], [-95.38477, 30.08778], [-95.39163, 30.0827], [-95.39829, 30.08557], [-95.40225, 30.09167], [-95.40988, 30.09272], [-95.41293, 30.09547], [-95.41062, 30.09924], [-95.41895, 30.10479], [-95.42422, 30.1155], [-95.43718, 30.10996], [-95.45175, 30.10828], [-95.45515, 30.10429], [-95.47476, 30.10323], [-95.48831, 30.10793], [-95.49761, 30.12272], [-95.49578, 30.13187], [-95.4999, 30.1426], [-95.51726, 30.15424], [-95.51997, 30.15277], [-95.52499, 30.16336], [-95.54198, 30.17053], [-95.55251, 30.17036], [-95.5585, 30.16535], [-95.55754, 30.16071], [-95.56025, 30.15834], [-95.56567, 30.16069], [-95.56993, 30.15741], [-95.57033, 30.15257], [-95.58062, 30.14991], [-95.59062, 30.13588], [-95.60086, 30.13274], [-95.62312, 30.13586], [-95.62601, 30.12893], [-95.62408, 30.12668], [-95.63687, 30.12637], [-95.65254, 30.11375], [-95.65401, 30.10923], [-95.66163, 30.1114], [-95.66902, 30.10145], [-95.68366, 30.10734], [-95.69122, 30.09873], [-95.71437, 30.10246], [-95.73405, 30.09349], [-95.74901, 30.09584], [-95.76126, 30.08637], [-95.78908, 30.09468], [-95.78891, 30.09196], [-95.80915, 30.08845], [-95.80961, 30.08532], [-95.81592, 30.08528], [-95.81705, 30.08178], [-95.8285, 30.08174], [-95.83305, 30.08513], [-95.83895, 30.08325], [-95.84444, 30.08794], [-95.84275, 30.09484], [-95.84649, 30.10046], [-95.8568, 30.10174], [-95.86193, 30.10561], [-95.86255, 30.11146], [-95.8725, 30.1181], [-95.87375, 30.12211], [-95.87897, 30.12041], [-95.88095, 30.12326], [-95.88307, 30.1198], [-95.89, 30.11891], [-95.89656, 30.12268], [-95.89916, 30.12102], [-95.90537, 30.12751], [-95.91601, 30.13131], [-95.92437, 30.1424], [-95.94086, 30.14434], [-95.94679, 30.15419], [-95.96051, 30.16369], [-95.92509, 30.06391], [-95.92151, 30.06403], [-95.92128, 30.05407], [-95.82623, 29.78829], [-95.61003, 29.667], [-95.45126, 29.59314], [-95.42413, 29.58024]]]}}]}