{"type": "FeatureCollection", "bbox": [-95.65404907909812, 29.540624159891273, -94.94035589263231, 30.104018258114614], "features": [{"type": "Feature", "geometry": {"type": "Polygon", "coordinates": [[[-95.63663008727393, 30.0970252570176], [-95.63678208760989, 30.09697025596169], [-95.63630308613746, 30.096899256927397], [-95.63562008624716, 30.097245256271865], [-95.63437308629224, 30.09552525640058], [-95.63392508568027, 30.094481255949546], [-95.63320408525685, 30.091752256135454], [-95.6324640845668, 30.08942125493081], [-95.63162408521599, 30.089537254984915], [-95.62526408307302, 30.093031255039264], [-95.62252908313876, 30.09441325676159], [-95.61360808113882, 30.09821725717788], [-95.6169290817773, 30.104018258114614], [-95.61856908299092, 30.103034258252933], [-95.61920708267537, 30.102774258412776], [-95.6200250822849, 30.10261525819437], [-95.6229610838572, 30.10255925849153], [-95.62290908308036, 30.099567257432966], [-95.62834308565878, 30.09956825688916], [-95.62834908460826, 30.097779256791732], [-95.63551808703824, 30.097674255974233], [-95.63579308649953, 30.097572256583312], [-95.63628208622107, 30.09715425694352], [-95.63663008727393, 30.0970252570176]]]}, "properties": {"geoid": "482015554021", "pct_zero_car": 0.1611, "median_hh_income": 57556, "stop_mi": 7.06, "total_pop": 1698}}, {"type": "Feature", "geometry": {"type": "Polygon", "coordinates": [[[-95.63243008512993, 30.08943025484605], [-95.63118708537299, 30.084242254292615], [-95.63025808363875, 30.08132225369773], [-95.62841308328404, 30.076988253135294], [-95.62742708344504, 30.074891252025374], [-95.6262640822574, 30.07271425161081], [-95.62449208259595, 30.06976125148125], [-95.62383508174659, 30.068875250918886], [-95.62287508184686, 30.067268250917138], [-95.62309308230505, 30.066984250811693], [-95.6235600822853, 30.066826251139325], [-95.6112500789765, 30.066954251021222], [-95.61164007986214, 30.08977825534578], [-95.6142820808083, 30.08973625536387], [-95.6164930817592, 30.09373825677722], [-95.61776208145542, 30.093210256423397], [-95.6193020822116, 30.095786256927955], [-95.62252908313876, 30.09441325676159], [-95.62526408307302, 30.093031255039264], [-95.63162408521599, 30.089537254984915], [-95.63243008512993, 30.08943025484605]]]}, "properties": {"geoid": "482015554022", "pct_zero_car": 0.1609, "median_hh_income": 40071, "stop_mi": 5.94, "total_pop": 2684}}, {"type": "Feature", "geometry": {"type": "Polygon", "coordinates": [[[-95.13976294023752, 29.675975187510566], [-95.14018794128326, 29.675373187132767], [-95.13761093973612, 29.67382518745161], [-95.13694593938918, 29.673226186981598], [-95.13654993955406, 29.672592187654246], [-95.13267893819636, 29.66350918477742], [-95.13145493780766, 29.663531185655405], [-95.13153193780056, 29.667532186026456], [-95.12903893771565, 29.667576186798488], [-95.12878693782058, 29.667658186589275], [-95.12869193828432, 29.667763186157124], [-95.1288389376991, 29.67470618770035], [-95.12999393759252, 29.674685187528187], [-95.13004593836936, 29.676421187475768], [-95.13931894072181, 29.676296188332532], [-95.13976294023752, 29.675975187510566]]]}, "properties": {"geoid": "482013423002", "pct_zero_car": 0.1781, "median_hh_income": 48942, "stop_mi": 5.74, "total_pop": 1558}}, {"type": "Feature", "geometry": {"type": "Polygon", "coordinates": [[[-94.95742289668041, 29.732284206112965], [-94.94636889354734, 29.729055205412028], [-94.94554389246849, 29.730937205967184], [-94.9437128923575, 29.73015020513751], [-94.94347989272899, 29.730410205468083], [-94.94302689209415, 29.73158120567395], [-94.94251089171011, 29.73225820534781], [-94.94218489219519, 29.73340020530145], [-94.94208689138759, 29.734105206276354], [-94.94125389170947, 29.73604820755486], [-94.9413048926614, 29.73678220741278], [-94.94121489224972, 29.73747020684044], [-94.94175489202487, 29.74012020762815], [-94.94538289370834, 29.739527207527473], [-94.94714989424524, 29.73883720746229], [-94.94806089374119, 29.738589206731323], [-94.95185789458073, 29.739323206713806], [-94.95388989543152, 29.739861206679063], [-94.95465089603792, 29.738605207753093], [-94.95742289668041, 29.732284206112965]]]}, "properties": {"geoid": "482012540002", "pct_zero_car": 0.1856, "median_hh_income": 48092, "stop_mi": 4.74, "total_pop": 1416}}, {"type": "Feature", "geometry": {"type": "Polygon", "coordinates": [[[-95.17244794871242, 29.67587218599146], [-95.17224094812488, 29.665324183664953], [-95.15565694395055, 29.665656184736118], [-95.15595494477469, 29.67068318538708], [-95.15602494509487, 29.67610118764176], [-95.17244794871242, 29.67587218599146]]]}, "properties": {"geoid": "482013239002", "pct_zero_car": 0.1616, "median_hh_income": 40865, "stop_mi": 3.9, "total_pop": 1877}}, {"type": "Feature", "geometry": {"type": "Polygon", "coordinates": [[[-95.17252094850734, 29.680616187386594], [-95.17244794871242, 29.67587218599146], [-95.15602494509487, 29.67610118764176], [-95.15608794574239, 29.677581187409732], [-95.15601194557442, 29.678901188144533], [-95.1557579451312, 29.679993187636946], [-95.15526994523455, 29.68152918817622], [-95.16886794850616, 29.681374187100683], [-95.16977994872532, 29.681476187910853], [-95.17172194916441, 29.682101187332773], [-95.17252794907836, 29.682251187770845], [-95.17252094850734, 29.680616187386594]]]}, "properties": {"geoid": "482013239001", "pct_zero_car": 0.1718, "median_hh_income": 28364, "stop_mi": 3.84, "total_pop": 2320}}, {"type": "Feature", "geometry": {"type": "Polygon", "coordinates": [[[-95.65404907909812, 29.840667203676137], [-95.65404907909812, 29.84032520396887], [-95.65096307863625, 29.840316203284114], [-95.65087607859763, 29.84007420292144], [-95.65085607850612, 29.835969203194928], [-95.64563307761154, 29.835996203304944], [-95.64577007877722, 29.849003205620573], [-95.65214907939011, 29.849022205845284], [-95.65211907835457, 29.84433020380765], [-95.6522520802206, 29.84407220407152], [-95.65267107962194, 29.843808204720645], [-95.65238207991693, 29.84350020472574], [-95.65204807910779, 29.843300204159675], [-95.65249507989485, 29.84245520400929], [-95.65252408020717, 29.84107420443781], [-95.65343807917783, 29.841081204051576], [-95.65394607916595, 29.841183204490363], [-95.65404907909812, 29.840667203676137]]]}, "properties": {"geoid": "482015416021", "pct_zero_car": 0.2086, "median_hh_income": 40955, "stop_mi": 3.78, "total_pop": 2311}}, {"type": "Feature", "geometry": {"type": "Polygon", "coordinates": [[[-94.95674489771129, 29.749187209100274], [-94.95705489643437, 29.748665208672726], [-94.95648689617181, 29.748764209392967], [-94.95460389528395, 29.74001020747848], [-94.95388989543152, 29.739861206679063], [-94.95240589565013, 29.74198820744745], [-94.94490289420763, 29.75100120995598], [-94.94419289275652, 29.752115209433747], [-94.94378389250261, 29.753036210722918], [-94.94317289437896, 29.75482321037707], [-94.9424298933159, 29.756119209943062], [-94.94177789338775, 29.75670321132265], [-94.94035589263231, 29.757426210591632], [-94.9423468934752, 29.757137210998287], [-94.94324889364862, 29.756854211617096], [-94.94524389379119, 29.75643621045184], [-94.95316989573129, 29.7551982104671], [-94.95416889688738, 29.753630209514316], [-94.95674489771129, 29.749187209100274]]]}, "properties": {"geoid": "482012541001", "pct_zero_car": 0.1763, "median_hh_income": 18371, "stop_mi": 3.75, "total_pop": 1860}}, {"type": "Feature", "geometry": {"type": "Polygon", "coordinates": [[[-95.18668095219374, 29.665076184011888], [-95.18651795198711, 29.65858018224631], [-95.17198794750655, 29.65866918299711], [-95.17211894882445, 29.66478218427329], [-95.17224094812488, 29.665324183664953], [-95.18668095219374, 29.665076184011888]]]}, "properties": {"geoid": "482013237011", "pct_zero_car": 0.1725, "median_hh_income": 47798, "stop_mi": 3.2, "total_pop": 1428}}, {"type": "Feature", "geometry": {"type": "Polygon", "coordinates": [[[-94.99547490688828, 29.755927208436372], [-94.99561790700339, 29.755735208121642], [-94.99244190523156, 29.753952209162865], [-94.99159590603296, 29.753262208537855], [-94.99093090658432, 29.752596208366615], [-94.99047890577441, 29.752071208256808], [-94.98771190515477, 29.74819320765246], [-94.98704990518088, 29.74762220733941], [-94.98476290406198, 29.744267206447194], [-94.9834639033302, 29.742744206644396], [-94.98320190338939, 29.742970206601818], [-94.98305690362443, 29.74339920686619], [-94.98272990248797, 29.743971206183524], [-94.98277490359212, 29.744796206486573], [-94.9829699035858, 29.745192207683914], [-94.98328490412838, 29.745406207242763], [-94.98331090227103, 29.74565920775389], [-94.98324790342014, 29.74575820754277], [-94.98281290322697, 29.745934207619317], [-94.98283190349353, 29.74623620688897], [-94.98247290257002, 29.74656120811099], [-94.98233490337607, 29.746963207094765], [-94.98236690316313, 29.747589208294094], [-94.98241090354405, 29.747716207372783], [-94.9824919037349, 29.74771320774646], [-94.98266390416237, 29.748489207930835], [-94.98247990314103, 29.748655207672773], [-94.98165790243524, 29.748772207532525], [-94.97988390222565, 29.749250208107476], [-94.97958090317526, 29.749484207861425], [-94.9793229025341, 29.75042620752506], [-94.97934190280066, 29.750817208320242], [-94.9795279025735, 29.750993208094698], [-94.98075090403559, 29.75140620858984], [-94.98046090270904, 29.751802208635553], [-94.97947090267208, 29.752154208316064], [-94.97931390231325, 29.752583209058155], [-94.97895490318636, 29.752946208731966], [-94.97861490252942, 29.75393120918343], [-94.97744890276536, 29.75465120875381], [-94.97719690197198, 29.75472120920523], [-94.97737390332063, 29.76128321035928], [-94.97847590261225, 29.76123921086788], [-94.97973290351122, 29.760898209865307], [-94.98596890490731, 29.76070121020715], [-94.98696790606343, 29.760618210207458], [-94.98840090579118, 29.760332208930443], [-94.99192890522059, 29.759153209477237], [-94.99323590634826, 29.758561209419923], [-94.99407290712267, 29.757872209885466], [-94.99547490688828, 29.755927208436372]]]}, "properties": {"geoid": "482012536004", "pct_zero_car": 0.245, "median_hh_income": 43818, "stop_mi": 3.03, "total_pop": 3780}}, {"type": "Feature", "geometry": {"type": "Polygon", "coordinates": [[[-95.21189196043677, 29.726531195552887], [-95.21174896121997, 29.719240194536265], [-95.21154396118054, 29.718781194481604], [-95.2111619606908, 29.718521193665577], [-95.21102296077365, 29.718121194155696], [-95.21114996099526, 29.71783019406259], [-95.21153896025938, 29.717507193722035], [-95.2116959606182, 29.717095194245417], [-95.21166796102911, 29.71256819329564], [-95.20127995716959, 29.71265819329003], [-95.2012799580679, 29.712114192752654], [-95.19166095610906, 29.712998193494407], [-95.19022295456179, 29.71307119403297], [-95.15337494554946, 29.712085193871825], [-95.15327394616543, 29.713726194502428], [-95.152801945264, 29.715041195329864], [-95.15224294612058, 29.71586119541762], [-95.15024994472955, 29.718074195495376], [-95.14876794459799, 29.719908195747138], [-95.14815194465486, 29.720899196239106], [-95.14790194351129, 29.721546196030015], [-95.14775694464463, 29.722279197321612], [-95.14607094429859, 29.736101199304724], [-95.1519069465599, 29.736884200315483], [-95.15304994765609, 29.737180199657363], [-95.15611694695303, 29.738732199490528], [-95.16861695113094, 29.74583220130208], [-95.17121695134597, 29.74723220098242], [-95.17341995279929, 29.74695420034852], [-95.178529953716, 29.745903200006], [-95.18211695449325, 29.74553220061001], [-95.18661795603781, 29.745832200522116], [-95.19261795743238, 29.743632199300926], [-95.19841795791204, 29.7418321991287], [-95.2001179585018, 29.740932198236038], [-95.20231795868375, 29.739133197920385], [-95.20491695997221, 29.736133196679468], [-95.20661796038686, 29.733332197022172], [-95.20931796016102, 29.728132196680146], [-95.21189196043677, 29.726531195552887]]]}, "properties": {"geoid": "482013241003", "pct_zero_car": 0.2101, "median_hh_income": 16635, "stop_mi": 3.01, "total_pop": 818}}, {"type": "Feature", "geometry": {"type": "Polygon", "coordinates": [[[-95.03212591895208, 29.807622218918244], [-95.03199991945368, 29.80502321811742], [-95.03188391910273, 29.79762821659487], [-95.02721691697852, 29.799352217173947], [-95.02562391651888, 29.79975621662144], [-95.02399491607423, 29.79991821740039], [-95.0166999150442, 29.800101217574998], [-95.01669791449605, 29.80040621764175], [-95.01770991427433, 29.800395217780746], [-95.0177719141986, 29.803163217372024], [-95.0181279156474, 29.8042412180626], [-95.02208191594747, 29.804160217698488], [-95.0221409154987, 29.80621521938904], [-95.02318091576436, 29.806201218394573], [-95.0232119157265, 29.807350217882913], [-95.02339391709802, 29.80757221839941], [-95.02407791591492, 29.8077742180971], [-95.03212591895208, 29.807622218918244]]]}, "properties": {"geoid": "482012530001", "pct_zero_car": 0.1872, "median_hh_income": 28906, "stop_mi": 2.8, "total_pop": 270}}, {"type": "Feature", "geometry": {"type": "Polygon", "coordinates": [[[-95.19082795373596, 29.693455189373132], [-95.19079895432196, 29.693031189957455], [-95.19036795432675, 29.69191318901533], [-95.19037395417453, 29.691615188750117], [-95.18280495260979, 29.69172018905178], [-95.18290495306724, 29.69613219003768], [-95.1863109531962, 29.696128190040298], [-95.18625495311971, 29.694078189958045], [-95.18589295272145, 29.694046189320662], [-95.18592095320886, 29.69378218913595], [-95.18626895336341, 29.6934491892172], [-95.19082795373596, 29.693455189373132]]]}, "properties": {"geoid": "482013230003", "pct_zero_car": 0.336, "median_hh_income": 28710, "stop_mi": 2.69, "total_pop": 2241}}, {"type": "Feature", "geometry": {"type": "Polygon", "coordinates": [[[-95.2073569567604, 29.654020180288793], [-95.20512795626613, 29.651055180416137], [-95.204110956465, 29.65122017959338], [-95.18971995279992, 29.651485181514655], [-95.18560695159289, 29.650831180593997], [-95.1834119514338, 29.650807181503566], [-95.18383095083514, 29.651301180949964], [-95.18522695165129, 29.652334180832746], [-95.1856939516315, 29.652969181409357], [-95.18591895176242, 29.653590181433607], [-95.18604895145874, 29.654321181204597], [-95.18604895145874, 29.656761181907225], [-95.1864669519335, 29.657783182057113], [-95.1865179510888, 29.658535181459623], [-95.18668095219374, 29.665076184011888], [-95.19504695434992, 29.664989183302588], [-95.195016955111, 29.663041181990934], [-95.19423895388783, 29.661574183076496], [-95.19366195340443, 29.66066418287555], [-95.19352995315994, 29.660235181933416], [-95.19337095315129, 29.65426118203535], [-95.2073569567604, 29.654020180288793]]]}, "properties": {"geoid": "482013236001", "pct_zero_car": 0.1895, "median_hh_income": 31677, "stop_mi": 2.69, "total_pop": 1813}}, {"type": "Feature", "geometry": {"type": "Polygon", "coordinates": [[[-95.03969692016663, 29.786169214512938], [-95.03984092010668, 29.785948214335022], [-95.02780291678442, 29.780836212751744], [-95.02616291646913, 29.780214212398292], [-95.02308391567998, 29.778872213192464], [-95.02184991524554, 29.77825721244759], [-95.0203619134696, 29.776910212483354], [-95.01923491406359, 29.775567212282898], [-95.01481491270988, 29.771139211488165], [-95.014076912568, 29.771633211853974], [-95.01382191229989, 29.77193721092807], [-95.0138309125207, 29.77643521240367], [-95.00878891137606, 29.77651421342173], [-95.00876491108662, 29.776081212287387], [-95.00850291114581, 29.77523221165331], [-95.00830191130434, 29.774861211668615], [-95.0073419105063, 29.77372021188533], [-95.00750191123818, 29.773531211771303], [-95.00803491134066, 29.77324921231181], [-95.00763491130756, 29.772456212111443], [-95.00746091033199, 29.771881211147445], [-95.00731191126738, 29.770880211931157], [-94.99973390858351, 29.771051211786027], [-94.99963090954965, 29.771816213061552], [-94.99970090807324, 29.772295211737614], [-94.9998399088887, 29.77257521306897], [-94.99987790852354, 29.773653211860967], [-95.00018390884529, 29.775070213020694], [-95.00014590831213, 29.775746213377197], [-95.0014869088767, 29.777979213674325], [-95.0016259096922, 29.778144213333817], [-95.00189690985384, 29.778277212436155], [-95.00200991073007, 29.77848021392627], [-95.00176390978446, 29.779195213147087], [-95.00183291027975, 29.780322212985098], [-95.00174990954075, 29.780921213799857], [-95.00217190931514, 29.7819112144545], [-95.00215591031994, 29.782238213644575], [-95.03189291842526, 29.78696621475645], [-95.03294491748818, 29.786995213814194], [-95.0376259189578, 29.786790214246], [-95.03919892022427, 29.786659212951925], [-95.03938791947184, 29.786610213138022], [-95.03969692016663, 29.786169214512938]]]}, "properties": {"geoid": "482012535003", "pct_zero_car": 0.2288, "median_hh_income": 34757, "stop_mi": 2.5, "total_pop": 2947}}, {"type": "Feature", "geometry": {"type": "Polygon", "coordinates": [[[-95.20512795626613, 29.651055180416137], [-95.19570295357772, 29.638624177938706], [-95.1918939530426, 29.638687177599742], [-95.19111695254264, 29.638733178851727], [-95.19058795263814, 29.638852179090588], [-95.19089095258684, 29.65147218160464], [-95.204110956465, 29.65122017959338], [-95.20512795626613, 29.651055180416137]]]}, "properties": {"geoid": "482013236002", "pct_zero_car": 0.2214, "median_hh_income": 33056, "stop_mi": 2.35, "total_pop": 1141}}, {"type": "Feature", "geometry": {"type": "Polygon", "coordinates": [[[-95.13682294565375, 29.789147211098047], [-95.13682294475544, 29.78901721157243], [-95.12632094288973, 29.78915321176772], [-95.12464394096787, 29.789025210396687], [-95.12452394131728, 29.79257121177585], [-95.1240739419538, 29.799407213142644], [-95.12399594213599, 29.801917213346925], [-95.13652194535486, 29.789816211437643], [-95.13676294537929, 29.789504210947708], [-95.13682294565375, 29.789147211098047]]]}, "properties": {"geoid": "482012523022", "pct_zero_car": 0.246, "median_hh_income": null, "stop_mi": 2.21, "total_pop": 466}}, {"type": "Feature", "geometry": {"type": "Polygon", "coordinates": [[[-95.22821696504334, 29.709778192464622], [-95.22814496507331, 29.70766319096599], [-95.2274209642768, 29.707928191613824], [-95.22491196429837, 29.70925819189877], [-95.22309996355564, 29.70983219131868], [-95.22215696337433, 29.7100221916218], [-95.21765296235505, 29.71058719226727], [-95.21163496051882, 29.71116419261133], [-95.2116959606182, 29.717095194245417], [-95.21153896025938, 29.717507193722035], [-95.21114996099526, 29.71783019406259], [-95.21102296077365, 29.718121194155696], [-95.2111619606908, 29.718521193665577], [-95.21154396118054, 29.718781194481604], [-95.21174896121997, 29.719240194536265], [-95.21189196043677, 29.726531195552887], [-95.21521796199644, 29.72453319523291], [-95.21931796278469, 29.72413319471949], [-95.22351896475361, 29.72533319459682], [-95.22404696393488, 29.72434819563246], [-95.22412996467388, 29.72378219431109], [-95.22415696443805, 29.723316194694593], [-95.22392896483244, 29.722513194473777], [-95.22382596310364, 29.72120219457326], [-95.22364496425197, 29.721007193656998], [-95.22339396418182, 29.720884194096406], [-95.22219396408258, 29.72051019377714], [-95.2214509630195, 29.720128193981413], [-95.22002396313952, 29.718753194570116], [-95.2200219625914, 29.71609619289974], [-95.2261089649229, 29.716042192733518], [-95.22618996421542, 29.715886193217194], [-95.22609796505223, 29.709955191937844], [-95.22821696504334, 29.709778192464622]]]}, "properties": {"geoid": "482013241002", "pct_zero_car": 0.1905, "median_hh_income": 40817, "stop_mi": 2.01, "total_pop": 1028}}, {"type": "Feature", "geometry": {"type": "Polygon", "coordinates": [[[-95.30891399874322, 30.004236249486894], [-95.30857499791122, 29.98554424510075], [-95.30699699752019, 29.98549524567986], [-95.30534699715913, 29.985312244786435], [-95.29695799453843, 29.983596245256603], [-95.29708599548327, 29.98295624506212], [-95.29593299434138, 29.982782245205524], [-95.29352899304662, 29.98268924445952], [-95.2815769908364, 29.982768244872897], [-95.27958298962045, 29.98255624537484], [-95.2787819906277, 29.982670244823506], [-95.27818198967977, 29.982671245459695], [-95.27717098882809, 29.98240024542584], [-95.27122398893361, 29.99746624903356], [-95.2702869886001, 30.00033724983659], [-95.26824998862477, 30.005023250794146], [-95.29387399462473, 30.005051249847927], [-95.30891399874322, 30.00437124914548], [-95.30891399874322, 30.004236249486894]]]}, "properties": {"geoid": "482012415001", "pct_zero_car": 0.2069, "median_hh_income": 33611, "stop_mi": 1.84, "total_pop": 2468}}, {"type": "Feature", "geometry": {"type": "Polygon", "coordinates": [[[-95.59389806913315, 29.961167230160523], [-95.5942610693563, 29.960887230695647], [-95.59364407048656, 29.96029623071448], [-95.59254506977133, 29.959472230285332], [-95.59229606935101, 29.959089230280497], [-95.59218306847477, 29.952493228103076], [-95.58487506702595, 29.95255422939063], [-95.58513006729409, 29.96329123107809], [-95.59048406950656, 29.963169230746676], [-95.59143306953565, 29.962999231476857], [-95.59164606907265, 29.96290123060285], [-95.59389806913315, 29.961167230160523]]]}, "properties": {"geoid": "482015523022", "pct_zero_car": 0.31, "median_hh_income": null, "stop_mi": 1.82, "total_pop": 1014}}, {"type": "Feature", "geometry": {"type": "Polygon", "coordinates": [[[-95.21679296201442, 29.69800918955434], [-95.20937595988734, 29.698063189274208], [-95.2095359597209, 29.71135719266787], [-95.21657596138112, 29.71070119132294], [-95.21647496199711, 29.710310191757028], [-95.21610796157599, 29.709795192092525], [-95.21601996261076, 29.709151192243525], [-95.2156169613063, 29.708656191151427], [-95.21551696084889, 29.708384192113257], [-95.21567796140567, 29.70739619140501], [-95.21642796124314, 29.706169190870277], [-95.21656996063503, 29.705759191488408], [-95.21662896108458, 29.70372319025261], [-95.21634696195058, 29.70178519058654], [-95.21634296175262, 29.701176190265468], [-95.21679296201442, 29.69800918955434]]]}, "properties": {"geoid": "482013222001", "pct_zero_car": 0.1538, "median_hh_income": 32232, "stop_mi": 1.78, "total_pop": 1660}}, {"type": "Feature", "geometry": {"type": "Polygon", "coordinates": [[[-95.22035996090355, 29.659416180590476], [-95.22031195942635, 29.658391181461], [-95.21885995943204, 29.65844218143526], [-95.21881896032247, 29.656424181126628], [-95.20942095829655, 29.65660818091206], [-95.2125719581574, 29.660807182002532], [-95.21892696027749, 29.660692181803547], [-95.2189189607799, 29.659436180854236], [-95.22035996090355, 29.659416180590476]]]}, "properties": {"geoid": "482013214021", "pct_zero_car": 0.1504, "median_hh_income": 58227, "stop_mi": 1.61, "total_pop": 968}}, {"type": "Feature", "geometry": {"type": "Polygon", "coordinates": [[[-95.21127195939735, 29.69077218730155], [-95.21107395903063, 29.690270187705163], [-95.21077895947785, 29.689839187292915], [-95.20980095913646, 29.688924188486723], [-95.20916095890387, 29.68797218735147], [-95.20907495869014, 29.687181187266756], [-95.20899595904743, 29.68359418662608], [-95.20022695648512, 29.68370418694836], [-95.20025095677457, 29.68542318817849], [-95.20008095689525, 29.685477187638746], [-95.19921895600649, 29.686263188550587], [-95.19981295710664, 29.687157187483574], [-95.19327695523658, 29.68949018808887], [-95.19324995547241, 29.690886188558068], [-95.2041389578507, 29.69087518838083], [-95.21127195939735, 29.69077218730155]]]}, "properties": {"geoid": "482013233001", "pct_zero_car": 0.1778, "median_hh_income": 31441, "stop_mi": 1.58, "total_pop": 1997}}, {"type": "Feature", "geometry": {"type": "Polygon", "coordinates": [[[-95.21875296020023, 29.6699761834988], [-95.21953396089813, 29.66996018402783], [-95.21754995972795, 29.667285183127117], [-95.21690996039366, 29.666538183077588], [-95.21559196029362, 29.664656182449605], [-95.21479095950426, 29.66372218289282], [-95.20813195671221, 29.654967181157648], [-95.20824695723825, 29.661445182056095], [-95.20790695747962, 29.663244182516273], [-95.20783995753247, 29.664806182372544], [-95.20796295845444, 29.670036184224102], [-95.20966095849606, 29.669962183766714], [-95.21014395926812, 29.67007018443709], [-95.21875296020023, 29.6699761834988]]]}, "properties": {"geoid": "482013215001", "pct_zero_car": 0.167, "median_hh_income": 33000, "stop_mi": 1.44, "total_pop": 2965}}, {"type": "Feature", "geometry": {"type": "Polygon", "coordinates": [[[-95.21985596291005, 29.702672190378323], [-95.21978996188949, 29.697977189388723], [-95.21679296201442, 29.69800918955434], [-95.21634296175262, 29.701176190265468], [-95.21634696195058, 29.70178519058654], [-95.21662896108458, 29.70372319025261], [-95.21658796107668, 29.705249191044075], [-95.21860596168376, 29.705250190562506], [-95.21858696231551, 29.704389190319226], [-95.2184309626799, 29.704367190579713], [-95.21844296147714, 29.704574191591327], [-95.21752096211057, 29.704601190470555], [-95.2175529618976, 29.702692190621104], [-95.21857596154655, 29.702682190500205], [-95.21857696226975, 29.703022190150964], [-95.21877896193612, 29.702708190344296], [-95.21985596291005, 29.702672190378323]]]}, "properties": {"geoid": "482013220001", "pct_zero_car": 0.1823, "median_hh_income": 45938, "stop_mi": 1.41, "total_pop": 1300}}, {"type": "Feature", "geometry": {"type": "Polygon", "coordinates": [[[-95.11572892893423, 29.561010164954983], [-95.11237792815854, 29.5596411644205], [-95.11230992928478, 29.56032416439828], [-95.1125519282358, 29.56200216404998], [-95.11258392892117, 29.56283616555937], [-95.11244692955214, 29.56331416487912], [-95.11197692919885, 29.564093165122117], [-95.11154192900565, 29.56452716508284], [-95.11093792785977, 29.564884166399985], [-95.1110659279063, 29.565168165714898], [-95.11108192869814, 29.565569165555814], [-95.11093892858301, 29.56601816566083], [-95.11034192800811, 29.56656016664374], [-95.10998092743476, 29.566714166963294], [-95.11009192866118, 29.566963165866913], [-95.11010392835674, 29.567294166728715], [-95.10995092909417, 29.567987165968695], [-95.10796792774889, 29.571706167444113], [-95.10960192731808, 29.572382167476096], [-95.11572892893423, 29.561010164954983]]]}, "properties": {"geoid": "482013413013", "pct_zero_car": 0.2387, "median_hh_income": 26257, "stop_mi": 1.15, "total_pop": 1678}}, {"type": "Feature", "geometry": {"type": "Polygon", "coordinates": [[[-95.46888703826306, 29.97799923765328], [-95.46872903807933, 29.97776323798003], [-95.46865303791134, 29.977433238393573], [-95.46857703864167, 29.976163237726638], [-95.46817903825841, 29.97503123684708], [-95.46587303777126, 29.97289923663994], [-95.4530110340934, 29.973171238427202], [-95.45277703374165, 29.97319323740628], [-95.45268203420542, 29.973281237942906], [-95.45270103357367, 29.973759237479943], [-95.4525940352402, 29.973924238065727], [-95.45244303383082, 29.973963238291457], [-95.44614103141417, 29.974106238210094], [-95.44589403244028, 29.974035238249048], [-95.44267403208413, 29.973881238038523], [-95.44163803111809, 29.973563237404232], [-95.44047003080591, 29.97305123846291], [-95.44014803148893, 29.973046237910058], [-95.43896702985964, 29.972755238138735], [-95.43790603057589, 29.972645238818824], [-95.43779902954745, 29.97252923728179], [-95.43611902994748, 29.972496237812596], [-95.43583503026537, 29.972419237711595], [-95.43546302982136, 29.972524238258977], [-95.43520002915731, 29.972697238229532], [-95.43655502996559, 29.973904239141184], [-95.43722003031253, 29.974623238413223], [-95.43780503029355, 29.975558238536944], [-95.4381550300979, 29.976505239796662], [-95.4383030302359, 29.977776239110845], [-95.43820403050172, 29.97897623973842], [-95.43782503038503, 29.980111239664375], [-95.4372740307392, 29.981038239711296], [-95.43966103141722, 29.98311624043978], [-95.43992203063482, 29.9828432403514], [-95.44001003139668, 29.982540239844926], [-95.44062203114186, 29.97843923850111], [-95.44061603129408, 29.97410123848851], [-95.44133503116939, 29.974305237819568], [-95.44193503211734, 29.97471723809035], [-95.44204903102184, 29.974871237783017], [-95.44224503173874, 29.975668238522214], [-95.44256103210623, 29.97615223856658], [-95.44288903127098, 29.97626223867219], [-95.44330603281912, 29.976674238607906], [-95.44350803158717, 29.97676823945681], [-95.44418403270309, 29.976861238743894], [-95.44430403235368, 29.976965239349628], [-95.44412103205559, 29.977345239200577], [-95.44414603216995, 29.977504239038577], [-95.44489103288284, 29.97828523889297], [-95.44518203313596, 29.978510239205093], [-95.4457680329419, 29.978798238767496], [-95.4457810333607, 29.98243423990911], [-95.45258603394595, 29.98233823925298], [-95.45377003504998, 29.981126239522922], [-95.45590503583294, 29.98171423895113], [-95.45666303516798, 29.981730239945573], [-95.45680603618143, 29.981956240099745], [-95.4572330359787, 29.982215239881565], [-95.45760803589742, 29.982189238780318], [-95.45804603556533, 29.982049239197853], [-95.45905003674433, 29.9821422397651], [-95.45958003557543, 29.98207023868092], [-95.46092603616285, 29.98207023868092], [-95.46144303727012, 29.981976238959305], [-95.4621190365894, 29.981641239244457], [-95.4629140366327, 29.9808542392873], [-95.46343203756487, 29.980139237964327], [-95.46395003670042, 29.979815239368072], [-95.46425903739522, 29.97973323927718], [-95.46560403725942, 29.979710238746026], [-95.46600803838876, 29.979633238789955], [-95.46696203754242, 29.978913237757002], [-95.46888703826306, 29.97799923765328]]]}, "properties": {"geoid": "482015504012", "pct_zero_car": 0.1851, "median_hh_income": 50547, "stop_mi": 0.9, "total_pop": 3865}}, {"type": "Feature", "geometry": {"type": "Polygon", "coordinates": [[[-95.14173393470071, 29.541527159666863], [-95.14171393550754, 29.54094015867974], [-95.14140993483561, 29.540624159891273], [-95.13757593328782, 29.54249915932032], [-95.13649293426276, 29.543189160354263], [-95.13155493287519, 29.546706161846796], [-95.12859993283294, 29.54896216151611], [-95.12928093217509, 29.549621161268455], [-95.13363493430488, 29.55438216241055], [-95.13494293435916, 29.551946162225697], [-95.13714193471618, 29.554223161643485], [-95.13732193464125, 29.553971162657657], [-95.141134934476, 29.55128716200475], [-95.14067093486881, 29.550759162580864], [-95.14041193530105, 29.55073916184988], [-95.13826293517272, 29.551087162594907], [-95.13784693434779, 29.549107161851698], [-95.137887935254, 29.548673162075417], [-95.13708093461683, 29.548323161024374], [-95.13694393345116, 29.54818916126124], [-95.14026893518592, 29.542006160113296], [-95.14088293458092, 29.54211515994681], [-95.14166693565188, 29.541922159745532], [-95.14114193504702, 29.541976159543335], [-95.14145393521653, 29.541826159686337], [-95.14173393470071, 29.541527159666863]]]}, "properties": {"geoid": "482013410004", "pct_zero_car": 0.2008, "median_hh_income": 61861, "stop_mi": 0.74, "total_pop": 1420}}, {"type": "Feature", "geometry": {"type": "Polygon", "coordinates": [[[-95.27015298151927, 29.836175215509936], [-95.26971097895844, 29.807051210523774], [-95.26611397903378, 29.80890821132628], [-95.26200997804756, 29.810757211739123], [-95.24464297442381, 29.818173212685057], [-95.24068297247933, 29.81975821345906], [-95.22993197019328, 29.82456521579898], [-95.23029297076663, 29.82534821577466], [-95.23038997085101, 29.825861215039282], [-95.23045197077528, 29.82769021497074], [-95.23056697130133, 29.828325215137536], [-95.23090497051182, 29.828895215967968], [-95.23160997104173, 29.829817215273494], [-95.23181697162929, 29.82996821672324], [-95.23179397116476, 29.83032121650753], [-95.2304819709125, 29.832101216503464], [-95.2302639704543, 29.832639216792668], [-95.23014597045353, 29.834006217432705], [-95.23043897125481, 29.83462921742559], [-95.23112397079494, 29.835368217615656], [-95.23285297079869, 29.836764216973144], [-95.23393197142242, 29.837759217005754], [-95.23418397221583, 29.838094217104683], [-95.23487797197677, 29.838336217589074], [-95.23575497293415, 29.838149217478794], [-95.2364289726036, 29.8381982185374], [-95.23657497309179, 29.838286216847997], [-95.23674497297111, 29.83855521706483], [-95.23683397265957, 29.839127218237763], [-95.23772897316029, 29.83953921772895], [-95.23831597279111, 29.840545218291588], [-95.23982997360804, 29.840682217491366], [-95.24039197402281, 29.84099521777912], [-95.24062497365132, 29.841297218608226], [-95.24069497397154, 29.84162721838757], [-95.24033597394633, 29.842853218845963], [-95.24036797373337, 29.843359218385956], [-95.24052597391712, 29.84346421870996], [-95.24116297377667, 29.843430218053143], [-95.24176197400138, 29.84377621837581], [-95.24214097501638, 29.84390321854258], [-95.24251897530816, 29.84412821954579], [-95.24285997399338, 29.844821218515573], [-95.2429799745423, 29.84486521865885], [-95.2432829753893, 29.844853218550867], [-95.24374897554463, 29.844672219409357], [-95.24403297522677, 29.844666218954387], [-95.24449997430868, 29.845100218989472], [-95.2448529753844, 29.845188218231563], [-95.24498597455549, 29.845166218233512], [-95.24535097532679, 29.844902218658053], [-95.246366975303, 29.844643218375676], [-95.24685797557268, 29.844346218320126], [-95.24741297541648, 29.84414221912395], [-95.24774797515222, 29.844158218862088], [-95.24845997535486, 29.844383219290826], [-95.2492169757633, 29.844388218515387], [-95.24937497594705, 29.844333218460147], [-95.24944397644235, 29.844146218669135], [-95.24984797577507, 29.843778218545356], [-95.24991697537205, 29.84343721828099], [-95.25039797649428, 29.843034218946688], [-95.25226597641523, 29.842056217483556], [-95.25282797683002, 29.84133121765362], [-95.25366097740645, 29.839940216893556], [-95.25399597714221, 29.83893421725047], [-95.25452597776996, 29.83840121687869], [-95.25468897797656, 29.838044217021704], [-95.25400597718796, 29.837623216670522], [-95.25419097623757, 29.83706521680611], [-95.25425097741035, 29.835722216020063], [-95.26209297878654, 29.835683216184684], [-95.2622439792976, 29.837046216644143], [-95.2624759791012, 29.836763216428555], [-95.262730978471, 29.836594216974852], [-95.26959198092939, 29.836571215316432], [-95.26983798097669, 29.836499215680906], [-95.27015298151927, 29.836175215509936]]]}, "properties": {"geoid": "482012311001", "pct_zero_car": 0.2566, "median_hh_income": null, "stop_mi": 0.66, "total_pop": 1645}}, {"type": "Feature", "geometry": {"type": "Polygon", "coordinates": [[[-95.12251893124754, 29.557233163978616], [-95.12034493100484, 29.554872163859425], [-95.1191519305783, 29.555736164462285], [-95.1183579294616, 29.556486163797857], [-95.11762692899241, 29.557493164277332], [-95.11436192932874, 29.563548164532207], [-95.11726592931738, 29.564711164676115], [-95.11762192896954, 29.563710165116518], [-95.11898793054677, 29.56114216378956], [-95.11977092999616, 29.55984816457539], [-95.12134893038719, 29.55808616330877], [-95.12251893124754, 29.557233163978616]]]}, "properties": {"geoid": "482013405001", "pct_zero_car": 0.1655, "median_hh_income": 44138, "stop_mi": 0.59, "total_pop": 731}}, {"type": "Feature", "geometry": {"type": "Polygon", "coordinates": [[[-95.56028704761898, 29.668519171380048], [-95.56013804765607, 29.66658517150442], [-95.55965604850553, 29.664283170977562], [-95.55881104823352, 29.662242170410924], [-95.55813104781795, 29.661053169626083], [-95.54893104526043, 29.669626172440168], [-95.54904704471308, 29.669821172418178], [-95.54935504558296, 29.67005417327304], [-95.55032404570352, 29.67061917310776], [-95.55087504624767, 29.671093172568025], [-95.551406045802, 29.670835172921482], [-95.5519420453792, 29.670710173078643], [-95.55316304629316, 29.670666172116633], [-95.55347304681287, 29.670590172396437], [-95.55493204737822, 29.670569172145253], [-95.5548960473932, 29.66790817185053], [-95.55499304747757, 29.667735172805475], [-95.55968404809461, 29.667642171138407], [-95.55973404832332, 29.66805817160739], [-95.56002404785325, 29.66823717175817], [-95.56028704761898, 29.668519171380048]]]}, "properties": {"geoid": "482014336002", "pct_zero_car": 0.2095, "median_hh_income": null, "stop_mi": 0.57, "total_pop": 614}}, {"type": "Feature", "geometry": {"type": "Polygon", "coordinates": [[[-95.58869105555564, 29.668599169855543], [-95.5886580559437, 29.667458171237804], [-95.58836805551546, 29.666384170506166], [-95.58819905456275, 29.666040171376327], [-95.58727205427499, 29.664633170186544], [-95.5853810538895, 29.662066169583486], [-95.5834430536484, 29.666441170538807], [-95.58576305437924, 29.667136170406636], [-95.58425005518387, 29.67087017116373], [-95.58766705428519, 29.67194717115393], [-95.58844005458718, 29.66999517164702], [-95.58869505575362, 29.668932170924396], [-95.58869105555564, 29.668599169855543]]]}, "properties": {"geoid": "482014534031", "pct_zero_car": 0.1512, "median_hh_income": 42131, "stop_mi": 0.54, "total_pop": 1677}}, {"type": "Feature", "geometry": {"type": "Polygon", "coordinates": [[[-95.24952696819817, 29.668383181631114], [-95.24927296685664, 29.656211180051127], [-95.24893896784413, 29.656225179355022], [-95.24854796803187, 29.656430180369746], [-95.24707796759589, 29.65490417997435], [-95.24017396547978, 29.65977718157804], [-95.24944396835751, 29.66973518270958], [-95.24952296889853, 29.669628183113264], [-95.24952696819817, 29.668383181631114]]]}, "properties": {"geoid": "482013208001", "pct_zero_car": 0.2277, "median_hh_income": 49583, "stop_mi": 0.54, "total_pop": 1377}}]}