{"type": "FeatureCollection", "bbox": [-95.62316999965294, 29.600742999871215, -95.16972300002789, 30.037749999837587], "features": [{"type": "Feature", "geometry": {"type": "Polygon", "coordinates": [[[-95.40258, 29.8594], [-95.39296, 29.84552], [-95.38448, 29.84552], [-95.38471, 29.85944], [-95.40258, 29.8594]]]}, "properties": {"GEOID": "48201221400", "total_pop": 6137, "pct_zero_car": 0.1239, "median_hh_income": 38190, "lila_share": 22.3418}}, {"type": "Feature", "geometry": {"type": "Polygon", "coordinates": [[[-95.40792, 29.86987], [-95.40258, 29.8594], [-95.38471, 29.85944], [-95.38491, 29.87005], [-95.40792, 29.86987]]]}, "properties": {"GEOID": "48201221500", "total_pop": 8259, "pct_zero_car": 0.1294, "median_hh_income": 29645, "lila_share": 21.5825}}, {"type": "Feature", "geometry": {"type": "Polygon", "coordinates": [[[-95.31548, 29.76468], [-95.31548, 29.76363], [-95.30538, 29.76072], [-95.29854, 29.7571], [-95.29339, 29.75715], [-95.2835, 29.7501], [-95.28404, 29.77811], [-95.29222, 29.77769], [-95.30123, 29.77442], [-95.31517, 29.77442], [-95.31548, 29.76468]]]}, "properties": {"GEOID": "48201211500", "total_pop": 6907, "pct_zero_car": 0.0691, "median_hh_income": 31377, "lila_share": 35.1317}}, {"type": "Feature", "geometry": {"type": "Polygon", "coordinates": [[[-95.31593, 29.78317], [-95.31517, 29.77442], [-95.30741, 29.77436], [-95.30736, 29.78746], [-95.31433, 29.78735], [-95.31591, 29.78676], [-95.31593, 29.78317]]]}, "properties": {"GEOID": "48201211600", "total_pop": 2811, "pct_zero_car": 0.2205, "median_hh_income": 32552, "lila_share": 12.798}}, {"type": "Feature", "geometry": {"type": "Polygon", "coordinates": [[[-95.62317, 29.67444], [-95.60547, 29.66447], [-95.59784, 29.66096], [-95.59806, 29.66364], [-95.59887, 29.66521], [-95.60316, 29.66896], [-95.6043, 29.67105], [-95.60438, 29.67331], [-95.60264, 29.67805], [-95.60824, 29.6797], [-95.60998, 29.67545], [-95.62308, 29.67534], [-95.62317, 29.67444]]]}, "properties": {"GEOID": "48201453800", "total_pop": 3342, "pct_zero_car": 0.0819, "median_hh_income": 60567, "lila_share": 46.4526}}, {"type": "Feature", "geometry": {"type": "Polygon", "coordinates": [[[-95.46355, 30.03297], [-95.45051, 30.01428], [-95.44792, 30.01558], [-95.43661, 30.01892], [-95.43759, 30.02154], [-95.44066, 30.02571], [-95.4416, 30.03007], [-95.43883, 30.03214], [-95.43181, 30.03197], [-95.42927, 30.03266], [-95.42937, 30.03564], [-95.43066, 30.03457], [-95.43162, 30.03564], [-95.43277, 30.03584], [-95.43478, 30.03403], [-95.43766, 30.03468], [-95.43871, 30.03406], [-95.4409, 30.03407], [-95.44159, 30.03535], [-95.44397, 30.0368], [-95.44623, 30.03652], [-95.44756, 30.03559], [-95.44828, 30.03648], [-95.45046, 30.03698], [-95.45123, 30.03775], [-95.45348, 30.03601], [-95.46134, 30.03495], [-95.46228, 30.03293], [-95.46355, 30.03297]]]}, "properties": {"GEOID": "48201553200", "total_pop": 6743, "pct_zero_car": 0.111, "median_hh_income": 43846, "lila_share": 25.4942}}, {"type": "Feature", "geometry": {"type": "Polygon", "coordinates": [[[-95.59703, 29.66067], [-95.5827, 29.65395], [-95.58398, 29.66013], [-95.58865, 29.66745], [-95.58728, 29.67522], [-95.59115, 29.67547], [-95.59703, 29.66067]]]}, "properties": {"GEOID": "48201453501", "total_pop": 6174, "pct_zero_car": 0.0581, "median_hh_income": 53785, "lila_share": 13.6846}}, {"type": "Feature", "geometry": {"type": "Polygon", "coordinates": [[[-95.26718, 29.70991], [-95.24629, 29.70607], [-95.22882, 29.7075], [-95.22814, 29.70766], [-95.22821, 29.70977], [-95.22609, 29.70995], [-95.2261, 29.71604], [-95.22001, 29.71609], [-95.22002, 29.71875], [-95.22382, 29.7212], [-95.22412, 29.72378], [-95.22342, 29.72524], [-95.22453, 29.72558], [-95.227, 29.72582], [-95.2321, 29.72426], [-95.23568, 29.72237], [-95.23891, 29.71952], [-95.24302, 29.71909], [-95.24792, 29.72064], [-95.25403, 29.72602], [-95.25579, 29.72681], [-95.25932, 29.72687], [-95.26652, 29.72494], [-95.26627, 29.71283], [-95.26718, 29.70991]]]}, "properties": {"GEOID": "48201324200", "total_pop": 1647, "pct_zero_car": 0.0337, "median_hh_income": 24880, "lila_share": 54.3517}}, {"type": "Feature", "geometry": {"type": "Polygon", "coordinates": [[[-95.56054, 29.67347], [-95.55994, 29.66549], [-95.55812, 29.66105], [-95.54218, 29.67587], [-95.56048, 29.67463], [-95.56054, 29.67347]]]}, "properties": {"GEOID": "48201433600", "total_pop": 5281, "pct_zero_car": 0.1104, "median_hh_income": 40601, "lila_share": 8.288}}, {"type": "Feature", "geometry": {"type": "Polygon", "coordinates": [[[-95.33145, 29.91619], [-95.33138, 29.91123], [-95.32362, 29.91074], [-95.32347, 29.90281], [-95.31174, 29.90276], [-95.30868, 29.91537], [-95.30712, 29.91843], [-95.31745, 29.91955], [-95.32671, 29.91927], [-95.33097, 29.92072], [-95.33145, 29.91619]]]}, "properties": {"GEOID": "48201223001", "total_pop": 3591, "pct_zero_car": 0.0751, "median_hh_income": 47175, "lila_share": 15.0256}}, {"type": "Feature", "geometry": {"type": "Polygon", "coordinates": [[[-95.52092, 29.62553], [-95.49504, 29.61339], [-95.49277, 29.61661], [-95.49213, 29.61659], [-95.48838, 29.62338], [-95.48404, 29.62574], [-95.48239, 29.62749], [-95.48234, 29.64027], [-95.52092, 29.62553]]]}, "properties": {"GEOID": "48201330303", "total_pop": 4061, "pct_zero_car": 0.0381, "median_hh_income": 48307, "lila_share": 42.7349}}, {"type": "Feature", "geometry": {"type": "Polygon", "coordinates": [[[-95.43115, 29.88627], [-95.43113, 29.88559], [-95.42998, 29.88564], [-95.42945, 29.86467], [-95.42817, 29.86359], [-95.41145, 29.86964], [-95.40792, 29.86987], [-95.42175, 29.88831], [-95.42586, 29.88642], [-95.43115, 29.88627]]]}, "properties": {"GEOID": "48201533300", "total_pop": 5880, "pct_zero_car": 0.184, "median_hh_income": 25539, "lila_share": 28.2096}}, {"type": "Feature", "geometry": {"type": "Polygon", "coordinates": [[[-95.46684, 29.8619], [-95.46519, 29.8596], [-95.46192, 29.85785], [-95.46454, 29.85425], [-95.46303, 29.85319], [-95.4637, 29.85138], [-95.4612, 29.84916], [-95.46105, 29.84706], [-95.45865, 29.84234], [-95.44187, 29.84241], [-95.44274, 29.84665], [-95.44281, 29.85789], [-95.44563, 29.85788], [-95.4464, 29.86348], [-95.46683, 29.86332], [-95.46684, 29.8619]]]}, "properties": {"GEOID": "48201531900", "total_pop": 4708, "pct_zero_car": 0.0579, "median_hh_income": 49637, "lila_share": 49.7013}}, {"type": "Feature", "geometry": {"type": "Polygon", "coordinates": [[[-95.50853, 29.66656], [-95.50843, 29.65602], [-95.5009, 29.65668], [-95.50117, 29.66675], [-95.50853, 29.66656]]]}, "properties": {"GEOID": "48201422401", "total_pop": 3910, "pct_zero_car": 0.2884, "median_hh_income": 31092, "lila_share": 7.504}}, {"type": "Feature", "geometry": {"type": "Polygon", "coordinates": [[[-95.25078, 29.61716], [-95.24982, 29.611], [-95.24994, 29.60578], [-95.24738, 29.60074], [-95.2406, 29.60719], [-95.24124, 29.6083], [-95.22996, 29.61859], [-95.22943, 29.62033], [-95.22117, 29.62058], [-95.22906, 29.6277], [-95.24853, 29.62716], [-95.24836, 29.62353], [-95.25078, 29.61716]]]}, "properties": {"GEOID": "48201333902", "total_pop": 8217, "pct_zero_car": 0.0762, "median_hh_income": 57761, "lila_share": 21.2731}}, {"type": "Feature", "geometry": {"type": "Polygon", "coordinates": [[[-95.47086, 29.90551], [-95.45853, 29.8921], [-95.44035, 29.87423], [-95.42945, 29.86467], [-95.42998, 29.88564], [-95.43113, 29.88559], [-95.43115, 29.88627], [-95.42586, 29.88642], [-95.42175, 29.88831], [-95.42931, 29.89803], [-95.4607, 29.89766], [-95.46312, 29.89877], [-95.46726, 29.90314], [-95.47086, 29.90551]]]}, "properties": {"GEOID": "48201533400", "total_pop": 9655, "pct_zero_car": 0.0564, "median_hh_income": 40890, "lila_share": 54.1994}}, {"type": "Feature", "geometry": {"type": "Polygon", "coordinates": [[[-95.44199, 29.91457], [-95.43017, 29.89912], [-95.42773, 29.90068], [-95.42247, 29.90229], [-95.41529, 29.90223], [-95.41245, 29.89965], [-95.41269, 29.91507], [-95.44199, 29.91457]]]}, "properties": {"GEOID": "48201533600", "total_pop": 5480, "pct_zero_car": 0.0821, "median_hh_income": 32588, "lila_share": 32.4298}}, {"type": "Feature", "geometry": {"type": "Polygon", "coordinates": [[[-95.39671, 29.89293], [-95.38512, 29.87325], [-95.38491, 29.87005], [-95.36509, 29.87073], [-95.37054, 29.89255], [-95.37691, 29.89222], [-95.37955, 29.89329], [-95.38457, 29.8916], [-95.38671, 29.89309], [-95.38795, 29.89226], [-95.39089, 29.89185], [-95.39563, 29.89332], [-95.39671, 29.89293]]]}, "properties": {"GEOID": "48201221700", "total_pop": 8245, "pct_zero_car": 0.0533, "median_hh_income": 43893, "lila_share": 42.6312}}, {"type": "Feature", "geometry": {"type": "Polygon", "coordinates": [[[-95.33242, 29.90352], [-95.33246, 29.9025], [-95.32347, 29.90281], [-95.32362, 29.91074], [-95.33138, 29.91123], [-95.33137, 29.90661], [-95.33242, 29.90352]]]}, "properties": {"GEOID": "48201223002", "total_pop": 3985, "pct_zero_car": 0.1284, "median_hh_income": 27767, "lila_share": 19.5063}}, {"type": "Feature", "geometry": {"type": "Polygon", "coordinates": [[[-95.37054, 29.89255], [-95.36509, 29.87073], [-95.35189, 29.87099], [-95.35525, 29.87747], [-95.35474, 29.89454], [-95.35704, 29.89477], [-95.36166, 29.89247], [-95.3642, 29.89234], [-95.36553, 29.8913], [-95.36869, 29.89264], [-95.37054, 29.89255]]]}, "properties": {"GEOID": "48201221800", "total_pop": 4285, "pct_zero_car": 0.0536, "median_hh_income": 32060, "lila_share": 32.7791}}, {"type": "Feature", "geometry": {"type": "Polygon", "coordinates": [[[-95.40366, 29.96597], [-95.4033, 29.95909], [-95.40137, 29.95909], [-95.39992, 29.95479], [-95.39948, 29.9506], [-95.38561, 29.95119], [-95.38416, 29.95202], [-95.38029, 29.9574], [-95.38026, 29.9654], [-95.40366, 29.96597]]]}, "properties": {"GEOID": "48201240501", "total_pop": 5418, "pct_zero_car": 0.1202, "median_hh_income": 31761, "lila_share": 44.7413}}, {"type": "Feature", "geometry": {"type": "Polygon", "coordinates": [[[-95.41269, 29.91507], [-95.41245, 29.89965], [-95.41039, 29.89874], [-95.40982, 29.89708], [-95.40793, 29.89687], [-95.40728, 29.89597], [-95.40568, 29.89628], [-95.4016, 29.89561], [-95.39805, 29.89271], [-95.39563, 29.89332], [-95.39268, 29.89206], [-95.38795, 29.89226], [-95.38688, 29.89311], [-95.38457, 29.8916], [-95.37937, 29.8933], [-95.37691, 29.89222], [-95.37054, 29.89255], [-95.37297, 29.90221], [-95.40047, 29.90255], [-95.40504, 29.91538], [-95.41269, 29.91507]]]}, "properties": {"GEOID": "48201222401", "total_pop": 3701, "pct_zero_car": 0.0228, "median_hh_income": 38296, "lila_share": 56.3976}}, {"type": "Feature", "geometry": {"type": "Polygon", "coordinates": [[[-95.32004, 29.75613], [-95.3181, 29.75503], [-95.31574, 29.75475], [-95.31301, 29.75554], [-95.30826, 29.75461], [-95.3048, 29.75582], [-95.30084, 29.75273], [-95.29861, 29.75416], [-95.29742, 29.75423], [-95.29483, 29.75115], [-95.29631, 29.74837], [-95.29576, 29.7474], [-95.29372, 29.74722], [-95.28791, 29.75003], [-95.27851, 29.73623], [-95.27577, 29.72756], [-95.27031, 29.72443], [-95.26651, 29.72485], [-95.26675, 29.72887], [-95.26491, 29.74285], [-95.26555, 29.76808], [-95.26408, 29.77572], [-95.27823, 29.77806], [-95.28404, 29.77811], [-95.2835, 29.7501], [-95.29339, 29.75715], [-95.29854, 29.7571], [-95.30538, 29.76072], [-95.31548, 29.76363], [-95.32004, 29.75613]]]}, "properties": {"GEOID": "48201212500", "total_pop": 3610, "pct_zero_car": 0.0729, "median_hh_income": 38774, "lila_share": 55.4376}}, {"type": "Feature", "geometry": {"type": "Polygon", "coordinates": [[[-95.26276, 29.87724], [-95.26232, 29.8481], [-95.25663, 29.8464], [-95.25574, 29.84668], [-95.25495, 29.84832], [-95.25285, 29.84775], [-95.25183, 29.84669], [-95.25031, 29.84731], [-95.24917, 29.84436], [-95.24741, 29.84414], [-95.24485, 29.84518], [-95.24297, 29.84486], [-95.24213, 29.8439], [-95.24036, 29.84335], [-95.24039, 29.84099], [-95.23831, 29.84054], [-95.23642, 29.83819], [-95.23418, 29.83809], [-95.23368, 29.83927], [-95.23162, 29.84032], [-95.23161, 29.84288], [-95.22859, 29.8447], [-95.22834, 29.85641], [-95.22879, 29.85742], [-95.23138, 29.85876], [-95.23168, 29.85975], [-95.23043, 29.86115], [-95.23067, 29.86212], [-95.23368, 29.86644], [-95.23689, 29.86935], [-95.2383, 29.87225], [-95.23822, 29.87767], [-95.23589, 29.87883], [-95.23702, 29.88106], [-95.23655, 29.88264], [-95.2369, 29.88385], [-95.23502, 29.88721], [-95.23792, 29.89016], [-95.23817, 29.89207], [-95.2402, 29.89265], [-95.24007, 29.89464], [-95.23872, 29.89587], [-95.23934, 29.8977], [-95.24068, 29.89864], [-95.26276, 29.87724]]]}, "properties": {"GEOID": "48201231200", "total_pop": 6698, "pct_zero_car": 0.1735, "median_hh_income": 36592, "lila_share": 43.0574}}, {"type": "Feature", "geometry": {"type": "Polygon", "coordinates": [[[-95.34448, 29.88097], [-95.34387, 29.8794], [-95.34403, 29.87721], [-95.34227, 29.87515], [-95.33549, 29.87524], [-95.33542, 29.87101], [-95.33229, 29.87103], [-95.3302, 29.87035], [-95.32235, 29.88381], [-95.32393, 29.88174], [-95.33003, 29.88169], [-95.33053, 29.8869], [-95.34296, 29.88674], [-95.34267, 29.88344], [-95.34448, 29.88097]]]}, "properties": {"GEOID": "48201222100", "total_pop": 5621, "pct_zero_car": 0.0573, "median_hh_income": 37689, "lila_share": 42.7396}}, {"type": "Feature", "geometry": {"type": "Polygon", "coordinates": [[[-95.52454, 29.86555], [-95.52436, 29.85943], [-95.49273, 29.84143], [-95.48887, 29.84148], [-95.48863, 29.86049], [-95.48677, 29.86575], [-95.52454, 29.86555]]]}, "properties": {"GEOID": "48201532300", "total_pop": 5520, "pct_zero_car": 0.0596, "median_hh_income": 45983, "lila_share": 20.4528}}, {"type": "Feature", "geometry": {"type": "Polygon", "coordinates": [[[-95.57121, 29.70393], [-95.57104, 29.6918], [-95.57026, 29.68838], [-95.56008, 29.68966], [-95.55748, 29.68942], [-95.55738, 29.7045], [-95.57121, 29.70393]]]}, "properties": {"GEOID": "48201453100", "total_pop": 3266, "pct_zero_car": 0.1414, "median_hh_income": 28441, "lila_share": 18.4063}}, {"type": "Feature", "geometry": {"type": "Polygon", "coordinates": [[[-95.33118, 29.90251], [-95.33104, 29.89089], [-95.33058, 29.89091], [-95.33003, 29.88169], [-95.32393, 29.88174], [-95.31174, 29.90276], [-95.33118, 29.90251]]]}, "properties": {"GEOID": "48201222200", "total_pop": 3726, "pct_zero_car": 0.049, "median_hh_income": 33940, "lila_share": 39.912}}, {"type": "Feature", "geometry": {"type": "Polygon", "coordinates": [[[-95.37297, 29.90221], [-95.37054, 29.89255], [-95.36869, 29.89264], [-95.36553, 29.8913], [-95.3642, 29.89234], [-95.36166, 29.89247], [-95.35704, 29.89477], [-95.35079, 29.89443], [-95.34809, 29.89305], [-95.34694, 29.89066], [-95.34595, 29.89084], [-95.34456, 29.88991], [-95.34422, 29.88777], [-95.34296, 29.88674], [-95.33053, 29.8869], [-95.33118, 29.90251], [-95.37297, 29.90221]]]}, "properties": {"GEOID": "48201222300", "total_pop": 4512, "pct_zero_car": 0.0392, "median_hh_income": 42912, "lila_share": 41.0022}}, {"type": "Feature", "geometry": {"type": "Polygon", "coordinates": [[[-95.30738, 29.78195], [-95.30738, 29.78014], [-95.29166, 29.78017], [-95.29176, 29.78762], [-95.30736, 29.78746], [-95.30738, 29.78195]]]}, "properties": {"GEOID": "48201211900", "total_pop": 5225, "pct_zero_car": 0.0553, "median_hh_income": 38038, "lila_share": 31.6552}}, {"type": "Feature", "geometry": {"type": "Polygon", "coordinates": [[[-95.32167, 29.67774], [-95.3182, 29.66611], [-95.30667, 29.66868], [-95.30005, 29.67276], [-95.29382, 29.67373], [-95.28906, 29.67318], [-95.2895, 29.67527], [-95.2939, 29.68145], [-95.30557, 29.68142], [-95.32167, 29.67774]]]}, "properties": {"GEOID": "48201332600", "total_pop": 6605, "pct_zero_car": 0.1586, "median_hh_income": 42002, "lila_share": 45.871}}, {"type": "Feature", "geometry": {"type": "Polygon", "coordinates": [[[-95.5149, 29.84118], [-95.5151, 29.84103], [-95.451, 29.79482], [-95.44907, 29.8016], [-95.45089, 29.80159], [-95.45282, 29.80453], [-95.49273, 29.84143], [-95.5149, 29.84118]]]}, "properties": {"GEOID": "48201520500", "total_pop": 7869, "pct_zero_car": 0.0764, "median_hh_income": 36614, "lila_share": 16.0532}}, {"type": "Feature", "geometry": {"type": "Polygon", "coordinates": [[[-95.3006, 29.87138], [-95.30056, 29.86687], [-95.29296, 29.86701], [-95.29278, 29.85296], [-95.28904, 29.85175], [-95.26832, 29.87195], [-95.3006, 29.87138]]]}, "properties": {"GEOID": "48201231400", "total_pop": 2379, "pct_zero_car": 0.0545, "median_hh_income": 40641, "lila_share": 32.4011}}, {"type": "Feature", "geometry": {"type": "Polygon", "coordinates": [[[-95.49231, 29.8847], [-95.48162, 29.86576], [-95.47565, 29.86576], [-95.47279, 29.86689], [-95.474, 29.87415], [-95.4739, 29.88431], [-95.47826, 29.88484], [-95.48523, 29.88422], [-95.48529, 29.88476], [-95.49231, 29.8847]]]}, "properties": {"GEOID": "48201532700", "total_pop": 4820, "pct_zero_car": 0.0568, "median_hh_income": 56832, "lila_share": 22.1291}}, {"type": "Feature", "geometry": {"type": "Polygon", "coordinates": [[[-95.27015, 29.83617], [-95.2697, 29.80705], [-95.22993, 29.82456], [-95.23056, 29.82832], [-95.23181, 29.82996], [-95.23026, 29.83263], [-95.23043, 29.83462], [-95.23418, 29.83809], [-95.23642, 29.83819], [-95.23831, 29.84054], [-95.24039, 29.84099], [-95.24045, 29.84344], [-95.24485, 29.84518], [-95.24741, 29.84414], [-95.24917, 29.84436], [-95.25031, 29.84731], [-95.25183, 29.84669], [-95.25285, 29.84775], [-95.25495, 29.84832], [-95.25574, 29.84668], [-95.25663, 29.8464], [-95.26232, 29.8481], [-95.26224, 29.83704], [-95.27015, 29.83617]]]}, "properties": {"GEOID": "48201231100", "total_pop": 4729, "pct_zero_car": 0.1213, "median_hh_income": 61252, "lila_share": 31.4791}}, {"type": "Feature", "geometry": {"type": "Polygon", "coordinates": [[[-95.30056, 29.86687], [-95.30049, 29.85308], [-95.2975, 29.85398], [-95.29401, 29.85168], [-95.29256, 29.85167], [-95.29152, 29.85249], [-95.29224, 29.8532], [-95.29278, 29.85296], [-95.29296, 29.86701], [-95.30056, 29.86687]]]}, "properties": {"GEOID": "48201231500", "total_pop": 2706, "pct_zero_car": 0.1219, "median_hh_income": 27635, "lila_share": 24.4624}}, {"type": "Feature", "geometry": {"type": "Polygon", "coordinates": [[[-95.31806, 29.8629], [-95.31609, 29.86232], [-95.31185, 29.85805], [-95.30693, 29.85829], [-95.30637, 29.85679], [-95.30405, 29.85499], [-95.30385, 29.85316], [-95.30049, 29.85308], [-95.30056, 29.86687], [-95.31651, 29.86667], [-95.31806, 29.8629]]]}, "properties": {"GEOID": "48201231600", "total_pop": 2822, "pct_zero_car": 0.0863, "median_hh_income": 45708, "lila_share": 30.3987}}, {"type": "Feature", "geometry": {"type": "Polygon", "coordinates": [[[-95.33355, 29.86212], [-95.33359, 29.86134], [-95.33182, 29.86081], [-95.33014, 29.86222], [-95.32862, 29.86178], [-95.32703, 29.86253], [-95.32504, 29.8644], [-95.31806, 29.8629], [-95.30659, 29.89119], [-95.31825, 29.89096], [-95.33226, 29.86685], [-95.33355, 29.86212]]]}, "properties": {"GEOID": "48201231700", "total_pop": 3867, "pct_zero_car": 0.0749, "median_hh_income": 30300, "lila_share": 56.7241}}, {"type": "Feature", "geometry": {"type": "Polygon", "coordinates": [[[-95.50843, 29.65602], [-95.50829, 29.64423], [-95.50037, 29.64437], [-95.50057, 29.65449], [-95.50557, 29.65447], [-95.50557, 29.65603], [-95.50843, 29.65602]]]}, "properties": {"GEOID": "48201422301", "total_pop": 7108, "pct_zero_car": 0.1404, "median_hh_income": 36264, "lila_share": 22.7012}}, {"type": "Feature", "geometry": {"type": "Polygon", "coordinates": [[[-95.43727, 29.98103], [-95.42128, 29.96769], [-95.42186, 29.96596], [-95.41925, 29.96573], [-95.42135, 29.97417], [-95.42561, 29.99764], [-95.43289, 29.9972], [-95.43608, 29.99584], [-95.43216, 29.99298], [-95.43117, 29.98945], [-95.43222, 29.98688], [-95.43727, 29.98103]]]}, "properties": {"GEOID": "48201550301", "total_pop": 6600, "pct_zero_car": 0.0841, "median_hh_income": 29693, "lila_share": 68.3419}}, {"type": "Feature", "geometry": {"type": "Polygon", "coordinates": [[[-95.48469, 29.99539], [-95.4794, 29.98769], [-95.47855, 29.98365], [-95.4756, 29.97944], [-95.47214, 29.97656], [-95.47065, 29.97787], [-95.46911, 29.97818], [-95.46817, 29.97503], [-95.46587, 29.97289], [-95.453, 29.97317], [-95.45244, 29.97396], [-95.44613, 29.9741], [-95.44267, 29.97388], [-95.43779, 29.97252], [-95.43519, 29.97269], [-95.43721, 29.97462], [-95.43815, 29.9765], [-95.4382, 29.97897], [-95.43727, 29.98103], [-95.45495, 29.99623], [-95.46369, 30.00709], [-95.48469, 29.99539]]]}, "properties": {"GEOID": "48201550401", "total_pop": 10249, "pct_zero_car": 0.1129, "median_hh_income": 52360, "lila_share": 40.2547}}, {"type": "Feature", "geometry": {"type": "Polygon", "coordinates": [[[-95.37962, 29.93279], [-95.37589, 29.91803], [-95.37623, 29.91357], [-95.37297, 29.90221], [-95.35505, 29.90234], [-95.35607, 29.93135], [-95.37209, 29.93344], [-95.37962, 29.93279]]]}, "properties": {"GEOID": "48201222800", "total_pop": 3561, "pct_zero_car": 0.0314, "median_hh_income": 32781, "lila_share": 67.5574}}, {"type": "Feature", "geometry": {"type": "Polygon", "coordinates": [[[-95.56358, 29.81247], [-95.56298, 29.78481], [-95.55358, 29.78465], [-95.55386, 29.80913], [-95.55444, 29.80937], [-95.55445, 29.81268], [-95.56358, 29.81247]]]}, "properties": {"GEOID": "48201522402", "total_pop": 3920, "pct_zero_car": 0.0993, "median_hh_income": 58085, "lila_share": 29.5554}}, {"type": "Feature", "geometry": {"type": "Polygon", "coordinates": [[[-95.44616, 29.62757], [-95.44597, 29.61878], [-95.44118, 29.62061], [-95.4372, 29.61891], [-95.43248, 29.61892], [-95.43111, 29.61953], [-95.4297, 29.61899], [-95.42726, 29.61953], [-95.42581, 29.61897], [-95.42448, 29.61986], [-95.42243, 29.62007], [-95.41744, 29.61903], [-95.41398, 29.62769], [-95.44616, 29.62757]]]}, "properties": {"GEOID": "48201330500", "total_pop": 4121, "pct_zero_car": 0.0573, "median_hh_income": 52773, "lila_share": 49.8004}}, {"type": "Feature", "geometry": {"type": "Polygon", "coordinates": [[[-95.1937, 29.78838], [-95.19291, 29.78839], [-95.19332, 29.78789], [-95.18323, 29.78808], [-95.18308, 29.78271], [-95.1824, 29.78273], [-95.18239, 29.78201], [-95.16972, 29.78227], [-95.16994, 29.79037], [-95.17784, 29.79199], [-95.18748, 29.79189], [-95.18999, 29.7929], [-95.1937, 29.78838]]]}, "properties": {"GEOID": "48201233101", "total_pop": 4107, "pct_zero_car": 0.0626, "median_hh_income": 34953, "lila_share": 6.3579}}, {"type": "Feature", "geometry": {"type": "Polygon", "coordinates": [[[-95.30206, 29.83867], [-95.30203, 29.83401], [-95.29375, 29.83399], [-95.29374, 29.83135], [-95.28847, 29.83132], [-95.28817, 29.85123], [-95.28904, 29.85175], [-95.30206, 29.83867]]]}, "properties": {"GEOID": "48201230800", "total_pop": 2805, "pct_zero_car": 0.1007, "median_hh_income": 29688, "lila_share": 30.6249}}, {"type": "Feature", "geometry": {"type": "Polygon", "coordinates": [[[-95.35178, 29.87099], [-95.35, 29.86734], [-95.34954, 29.84968], [-95.34863, 29.84807], [-95.3429, 29.84815], [-95.33484, 29.86191], [-95.33815, 29.86223], [-95.34161, 29.8644], [-95.34272, 29.86733], [-95.34124, 29.86824], [-95.34158, 29.86983], [-95.3411, 29.87107], [-95.35178, 29.87099]]]}, "properties": {"GEOID": "48201221000", "total_pop": 4037, "pct_zero_car": 0.0972, "median_hh_income": 32443, "lila_share": 53.1533}}, {"type": "Feature", "geometry": {"type": "Polygon", "coordinates": [[[-95.24952, 29.66838], [-95.24917, 29.65221], [-95.22578, 29.65266], [-95.24211, 29.6702], [-95.24947, 29.67034], [-95.24952, 29.66838]]]}, "properties": {"GEOID": "48201320800", "total_pop": 5367, "pct_zero_car": 0.0886, "median_hh_income": 43563, "lila_share": 42.4781}}, {"type": "Feature", "geometry": {"type": "Polygon", "coordinates": [[[-95.25159, 29.6525], [-95.24336, 29.64074], [-95.23558, 29.64475], [-95.22537, 29.64535], [-95.22303, 29.64621], [-95.22117, 29.64779], [-95.22578, 29.65266], [-95.24917, 29.65221], [-95.24918, 29.6533], [-95.25159, 29.6525]]]}, "properties": {"GEOID": "48201320900", "total_pop": 7394, "pct_zero_car": 0.0229, "median_hh_income": 57395, "lila_share": 13.1151}}, {"type": "Feature", "geometry": {"type": "Polygon", "coordinates": [[[-95.38767, 29.65576], [-95.38728, 29.63221], [-95.38447, 29.62971], [-95.38141, 29.62941], [-95.37996, 29.63001], [-95.37989, 29.63163], [-95.37807, 29.63266], [-95.37791, 29.63598], [-95.37549, 29.63758], [-95.37569, 29.64023], [-95.37376, 29.64043], [-95.37261, 29.6419], [-95.37102, 29.64221], [-95.37034, 29.64346], [-95.36836, 29.64432], [-95.36869, 29.65824], [-95.38751, 29.65763], [-95.38767, 29.65576]]]}, "properties": {"GEOID": "48201331300", "total_pop": 4647, "pct_zero_car": 0.0792, "median_hh_income": 41388, "lila_share": 60.5207}}, {"type": "Feature", "geometry": {"type": "Polygon", "coordinates": [[[-95.48246, 29.64243], [-95.48234, 29.64027], [-95.46374, 29.64749], [-95.46402, 29.66048], [-95.46715, 29.65915], [-95.4691, 29.65733], [-95.4704, 29.65737], [-95.4775, 29.6529], [-95.48125, 29.65272], [-95.48227, 29.65047], [-95.48246, 29.64243]]]}, "properties": {"GEOID": "48201420500", "total_pop": 4041, "pct_zero_car": 0.1048, "median_hh_income": 39102, "lila_share": 50.8898}}, {"type": "Feature", "geometry": {"type": "Polygon", "coordinates": [[[-95.29201, 29.81451], [-95.29128, 29.80481], [-95.29017, 29.80422], [-95.28369, 29.80425], [-95.28014, 29.80247], [-95.2697, 29.80705], [-95.27009, 29.83145], [-95.29196, 29.83134], [-95.29201, 29.81451]]]}, "properties": {"GEOID": "48201230900", "total_pop": 4231, "pct_zero_car": 0.197, "median_hh_income": 23626, "lila_share": 37.3681}}, {"type": "Feature", "geometry": {"type": "Polygon", "coordinates": [[[-95.28848, 29.84267], [-95.28847, 29.83132], [-95.27009, 29.83145], [-95.26983, 29.83649], [-95.26272, 29.83659], [-95.26224, 29.83704], [-95.26254, 29.84816], [-95.26473, 29.84681], [-95.26656, 29.84678], [-95.26981, 29.84449], [-95.27045, 29.84515], [-95.27245, 29.84493], [-95.27431, 29.84556], [-95.27547, 29.84781], [-95.27794, 29.84855], [-95.28241, 29.84864], [-95.28532, 29.8504], [-95.28817, 29.85123], [-95.28848, 29.84267]]]}, "properties": {"GEOID": "48201231000", "total_pop": 4282, "pct_zero_car": 0.1173, "median_hh_income": 43396, "lila_share": 47.4462}}, {"type": "Feature", "geometry": {"type": "Polygon", "coordinates": [[[-95.32873, 29.66857], [-95.32855, 29.66136], [-95.31685, 29.66156], [-95.32014, 29.67266], [-95.32051, 29.67206], [-95.32859, 29.67206], [-95.32873, 29.66857]]]}, "properties": {"GEOID": "48201332300", "total_pop": 2918, "pct_zero_car": 0.0863, "median_hh_income": 35723, "lila_share": 57.6311}}, {"type": "Feature", "geometry": {"type": "Polygon", "coordinates": [[[-95.35629, 29.64822], [-95.35595, 29.63786], [-95.34937, 29.6381], [-95.34883, 29.63793], [-95.3487, 29.63622], [-95.3326, 29.63757], [-95.32399, 29.63752], [-95.32399, 29.63882], [-95.3101, 29.63904], [-95.31489, 29.65495], [-95.31659, 29.65416], [-95.3173, 29.65251], [-95.31953, 29.65085], [-95.32496, 29.65043], [-95.32707, 29.64946], [-95.3288, 29.64964], [-95.33171, 29.64643], [-95.33653, 29.64549], [-95.33785, 29.64434], [-95.34157, 29.64615], [-95.34416, 29.6465], [-95.34529, 29.64786], [-95.34856, 29.64706], [-95.35166, 29.64811], [-95.35219, 29.64905], [-95.35404, 29.64938], [-95.35629, 29.64822]]]}, "properties": {"GEOID": "48201331700", "total_pop": 3971, "pct_zero_car": 0.1674, "median_hh_income": 37213, "lila_share": 20.5615}}, {"type": "Feature", "geometry": {"type": "Polygon", "coordinates": [[[-95.35629, 29.6491], [-95.35629, 29.64822], [-95.35469, 29.64936], [-95.35306, 29.64932], [-95.35166, 29.64811], [-95.34856, 29.64706], [-95.34509, 29.64782], [-95.34416, 29.6465], [-95.34157, 29.64615], [-95.33785, 29.64434], [-95.33698, 29.64512], [-95.33728, 29.64801], [-95.33638, 29.65184], [-95.33651, 29.65862], [-95.35552, 29.65844], [-95.35547, 29.65264], [-95.35629, 29.6491]]]}, "properties": {"GEOID": "48201331800", "total_pop": 3682, "pct_zero_car": 0.2527, "median_hh_income": 36961, "lila_share": 51.5212}}, {"type": "Feature", "geometry": {"type": "Polygon", "coordinates": [[[-95.23454, 29.69049], [-95.22951, 29.68332], [-95.22153, 29.68335], [-95.22161, 29.69063], [-95.21967, 29.69067], [-95.21997, 29.71029], [-95.22419, 29.70952], [-95.22814, 29.70766], [-95.22809, 29.69056], [-95.23454, 29.69049]]]}, "properties": {"GEOID": "48201321900", "total_pop": 5855, "pct_zero_car": 0.0441, "median_hh_income": 45246, "lila_share": 3.5673}}, {"type": "Feature", "geometry": {"type": "Polygon", "coordinates": [[[-95.31592, 29.78761], [-95.31591, 29.78676], [-95.31349, 29.78741], [-95.29176, 29.78762], [-95.29166, 29.78017], [-95.30738, 29.78014], [-95.30741, 29.77436], [-95.30063, 29.77453], [-95.2927, 29.77755], [-95.28991, 29.77803], [-95.27823, 29.77806], [-95.26408, 29.77572], [-95.26355, 29.77822], [-95.26406, 29.78231], [-95.26933, 29.79456], [-95.27066, 29.79616], [-95.28014, 29.80247], [-95.31592, 29.78761]]]}, "properties": {"GEOID": "48201212400", "total_pop": 3216, "pct_zero_car": 0.073, "median_hh_income": 42501, "lila_share": 11.3892}}, {"type": "Feature", "geometry": {"type": "Polygon", "coordinates": [[[-95.42937, 30.03564], [-95.42898, 30.02115], [-95.42178, 30.02333], [-95.40429, 30.02664], [-95.40543, 30.03112], [-95.40633, 30.03093], [-95.40794, 30.03178], [-95.40828, 30.03383], [-95.40996, 30.036], [-95.41221, 30.03728], [-95.41662, 30.03738], [-95.41943, 30.0355], [-95.42239, 30.03529], [-95.42358, 30.03442], [-95.42652, 30.03585], [-95.42937, 30.03564]]]}, "properties": {"GEOID": "48201240801", "total_pop": 5157, "pct_zero_car": 0.0454, "median_hh_income": 36029, "lila_share": 49.0867}}, {"type": "Feature", "geometry": {"type": "Polygon", "coordinates": [[[-95.58537, 29.66206], [-95.58373, 29.65943], [-95.58148, 29.65956], [-95.57078, 29.65621], [-95.56869, 29.66387], [-95.57039, 29.67422], [-95.58152, 29.67488], [-95.58171, 29.67034], [-95.58537, 29.66206]]]}, "properties": {"GEOID": "48201453402", "total_pop": 8214, "pct_zero_car": 0.0309, "median_hh_income": 46558, "lila_share": 38.7335}}, {"type": "Feature", "geometry": {"type": "Polygon", "coordinates": [[[-95.27691, 29.66556], [-95.2767, 29.6579], [-95.26763, 29.65786], [-95.25949, 29.65242], [-95.25159, 29.6525], [-95.26248, 29.66913], [-95.26319, 29.66792], [-95.26315, 29.66545], [-95.27691, 29.66556]]]}, "properties": {"GEOID": "48201333202", "total_pop": 5674, "pct_zero_car": 0.1526, "median_hh_income": 36466, "lila_share": 52.4012}}, {"type": "Feature", "geometry": {"type": "Polygon", "coordinates": [[[-95.35595, 29.63786], [-95.35542, 29.61661], [-95.35416, 29.61662], [-95.34624, 29.62012], [-95.34091, 29.621], [-95.33936, 29.62651], [-95.33939, 29.63696], [-95.3487, 29.63622], [-95.34883, 29.63793], [-95.34937, 29.6381], [-95.35595, 29.63786]]]}, "properties": {"GEOID": "48201331601", "total_pop": 6458, "pct_zero_car": 0.0966, "median_hh_income": 36741, "lila_share": 38.3307}}, {"type": "Feature", "geometry": {"type": "Polygon", "coordinates": [[[-95.55903, 29.87231], [-95.5151, 29.84103], [-95.49273, 29.84143], [-95.52579, 29.86013], [-95.55578, 29.87352], [-95.55903, 29.87231]]]}, "properties": {"GEOID": "48201521700", "total_pop": 6609, "pct_zero_car": 0.0664, "median_hh_income": 29925, "lila_share": 27.1189}}, {"type": "Feature", "geometry": {"type": "Polygon", "coordinates": [[[-95.48095, 29.86575], [-95.48162, 29.86576], [-95.47206, 29.84889], [-95.46489, 29.84866], [-95.46066, 29.84641], [-95.4612, 29.84916], [-95.4637, 29.85138], [-95.46303, 29.85319], [-95.46459, 29.85457], [-95.46192, 29.85785], [-95.46589, 29.86025], [-95.46693, 29.86182], [-95.46683, 29.86332], [-95.47814, 29.86333], [-95.48095, 29.86575]]]}, "properties": {"GEOID": "48201532001", "total_pop": 4867, "pct_zero_car": 0.171, "median_hh_income": 36779, "lila_share": 44.5642}}, {"type": "Feature", "geometry": {"type": "Polygon", "coordinates": [[[-95.31825, 29.89096], [-95.30659, 29.89119], [-95.2957, 29.91876], [-95.29954, 29.91969], [-95.30712, 29.91843], [-95.30868, 29.91537], [-95.31172, 29.90281], [-95.31825, 29.89096]]]}, "properties": {"GEOID": "48201232100", "total_pop": 2869, "pct_zero_car": 0.0397, "median_hh_income": 35048, "lila_share": 33.5938}}, {"type": "Feature", "geometry": {"type": "Polygon", "coordinates": [[[-95.59942, 29.90084], [-95.58497, 29.89038], [-95.58451, 29.89088], [-95.58456, 29.90997], [-95.58971, 29.90904], [-95.59529, 29.90359], [-95.59942, 29.90084]]]}, "properties": {"GEOID": "48201551900", "total_pop": 5881, "pct_zero_car": 0.0701, "median_hh_income": 42250, "lila_share": 21.7155}}]}